{
    "links": {
        "self": "http://www.neowsapp.com/rest/v1/neo/3758849?api_key=iIulBulltgU6a56xZRHN4H3l9WmuAYTsLGpBGhQ2"
    },
    "id": "3758849",
    "neo_reference_id": "3758849",
    "name": "(2016 RA1)",
    "designation": "2016 RA1",
    "nasa_jpl_url": "http://ssd.jpl.nasa.gov/sbdb.cgi?sstr=3758849",
    "absolute_magnitude_h": 24.9,
    "estimated_diameter": {
        "kilometers": {
            "estimated_diameter_min": 0.0278326768,
            "estimated_diameter_max": 0.0622357573
        },
        "meters": {
            "estimated_diameter_min": 27.8326768072,
            "estimated_diameter_max": 62.2357573367
        },
        "miles": {
            "estimated_diameter_min": 0.0172944182,
            "estimated_diameter_max": 0.0386714948
        },
        "feet": {
            "estimated_diameter_min": 91.3145593761,
            "estimated_diameter_max": 204.1855621004
        }
    },
    "is_potentially_hazardous_asteroid": false,
    "close_approach_data": [
        {
            "close_approach_date": "2016-09-03",
            "close_approach_date_full": "2016-Sep-03 20:13",
            "epoch_date_close_approach": 1472933580000,
            "relative_velocity": {
                "kilometers_per_second": "11.1310460348",
                "kilometers_per_hour": "40071.7657252084",
                "miles_per_hour": "24899.0368751996"
            },
            "miss_distance": {
                "astronomical": "0.0769931722",
                "lunar": "29.9503439858",
                "kilometers": "11518014.565663214",
                "miles": "7156962.3783477932"
            },
            "orbiting_body": "Earth"
        }
    ],
    "orbital_data": {
        "orbit_id": "4",
        "orbit_determination_date": "2017-04-06 08:24:13",
        "first_observation_date": "2016-09-04",
        "last_observation_date": "2016-09-22",
        "data_arc_in_days": 18,
        "observations_used": 28,
        "orbit_uncertainty": "8",
        "minimum_orbit_intersection": ".0769562",
        "jupiter_tisserand_invariant": "3.076",
        "epoch_osculation": "2457637.5",
        "eccentricity": ".5906171239613539",
        "semi_major_axis": "2.644153405714524",
        "inclination": "15.62107136748039",
        "ascending_node_longitude": "164.1031153402307",
        "orbital_period": "1570.465494915484",
        "perihelion_distance": "1.082471125918793",
        "perihelion_argument": "171.7635826485799",
        "aphelion_distance": "4.205835685510255",
        "perihelion_time": "2457630.369974981310",
        "mean_anomaly": "1.634425598676739",
        "mean_motion": ".2292313974204023",
        "equinox": "J2000",
        "orbit_class": {
            "orbit_class_type": "AMO",
            "orbit_class_description": "Near-Earth asteroid orbits similar to that of 1221 Amor",
            "orbit_class_range": "1.017 AU < q (perihelion) < 1.3 AU"
        }
    },
    "is_sentry_object": false
}